{
  "type": "FeatureCollection",
  "features": [
    {
      "type": "Feature",
      "properties": {
        "norad_id": 31025,
        "name": "FENGYUN 1C DEB",
        "group": "fengyun-1c-debris",
        "lat": 69.56130058813659,
        "lon": -33.56739266302988,
        "alt_km": 832.8799369924873,
        "timestamp": "2025-12-26T12:57:39.552881+00:00",
        "meta_object_name": "FENGYUN 1C DEB",
        "meta_object_id": "1999-025BDT",
        "meta_epoch": "2025-12-07T05:28:07.771008",
        "meta_mean_motion": 14.20521805,
        "meta_eccentricity": 0.01734931,
        "meta_inclination": 98.58,
        "meta_ra_of_asc_node": 331.5793,
        "meta_arg_of_pericenter": 28.741,
        "meta_mean_anomaly": 332.3194,
        "meta_ephemeris_type": 0,
        "meta_classification_type": "U",
        "meta_norad_cat_id": 31025,
        "meta_element_set_no": 999,
        "meta_rev_at_epoch": 64287,
        "meta_bstar": 0.0012507545,
        "meta_mean_motion_dot": 3.084e-05,
        "meta_mean_motion_ddot": 0,
        "tle_line1": "1 31025U 99025BDT 25341.22786772  .00003084  00000+0  12508-2 0  9994",
        "tle_line2": "2 31025  98.5800 331.5793 0173493  28.7410 332.3194 14.20521805642873"
      },
      "geometry": {
        "type": "Point",
        "coordinates": [
          -33.56739266302988,
          69.56130058813659
        ]
      }
    },
    {
      "type": "Feature",
      "properties": {
        "norad_id": 31026,
        "name": "FENGYUN 1C DEB",
        "group": "fengyun-1c-debris",
        "lat": 26.830151455153388,
        "lon": -69.29689520459986,
        "alt_km": 995.8283282359298,
        "timestamp": "2025-12-26T12:57:39.552891+00:00",
        "meta_object_name": "FENGYUN 1C DEB",
        "meta_object_id": "1999-025BDU",
        "meta_epoch": "2025-12-16T14:07:08.116896",
        "meta_mean_motion": 13.83400412,
        "meta_eccentricity": 0.01344959,
        "meta_inclination": 98.7801,
        "meta_ra_of_asc_node": 285.8947,
        "meta_arg_of_pericenter": 172.0946,
        "meta_mean_anomaly": 1.2766,
        "meta_ephemeris_type": 0,
        "meta_classification_type": "U",
        "meta_norad_cat_id": 31026,
        "meta_element_set_no": 999,
        "meta_rev_at_epoch": 68079,
        "meta_bstar": 0.00014906948,
        "meta_mean_motion_dot": 1.36e-06,
        "meta_mean_motion_ddot": 0,
        "tle_line1": "1 31026U 99025BDU 25350.58828839  .00000136  00000+0  14907-3 0  9996",
        "tle_line2": "2 31026  98.7801 285.8947 0134495 172.0946   1.2766 13.83400412680793"
      },
      "geometry": {
        "type": "Point",
        "coordinates": [
          -69.29689520459986,
          26.830151455153388
        ]
      }
    },
    {
      "type": "Feature",
      "properties": {
        "norad_id": 31028,
        "name": "FENGYUN 1C DEB",
        "group": "fengyun-1c-debris",
        "lat": -39.246209432483354,
        "lon": -61.31236425551941,
        "alt_km": 883.8761201781645,
        "timestamp": "2025-12-26T12:57:39.552901+00:00",
        "meta_object_name": "FENGYUN 1C DEB",
        "meta_object_id": "1999-025BDW",
        "meta_epoch": "2025-12-25T00:50:54.506976",
        "meta_mean_motion": 13.89080834,
        "meta_eccentricity": 0.01641634,
        "meta_inclination": 98.7065,
        "meta_ra_of_asc_node": 290.0897,
        "meta_arg_of_pericenter": 260.5162,
        "meta_mean_anomaly": 97.7411,
        "meta_ephemeris_type": 0,
        "meta_classification_type": "U",
        "meta_norad_cat_id": 31028,
        "meta_element_set_no": 999,
        "meta_rev_at_epoch": 62174,
        "meta_bstar": 0.00025878519,
        "meta_mean_motion_dot": 3.08e-06,
        "meta_mean_motion_ddot": 0,
        "tle_line1": "1 31028U 99025BDW 25359.03535309  .00000308  00000+0  25879-3 0  9995",
        "tle_line2": "2 31028  98.7065 290.0897 0164163 260.5162  97.7411 13.89080834621742"
      },
      "geometry": {
        "type": "Point",
        "coordinates": [
          -61.31236425551941,
          -39.246209432483354
        ]
      }
    },
    {
      "type": "Feature",
      "properties": {
        "norad_id": 31029,
        "name": "FENGYUN 1C DEB",
        "group": "fengyun-1c-debris",
        "lat": -35.46200383224515,
        "lon": -95.83943692373379,
        "alt_km": 760.4702024513108,
        "timestamp": "2025-12-26T12:57:39.552911+00:00",
        "meta_object_name": "FENGYUN 1C DEB",
        "meta_object_id": "1999-025BDX",
        "meta_epoch": "2025-12-24T16:12:29.903904",
        "meta_mean_motion": 14.34345661,
        "meta_eccentricity": 0.00899574,
        "meta_inclination": 98.8586,
        "meta_ra_of_asc_node": 255.872,
        "meta_arg_of_pericenter": 39.1712,
        "meta_mean_anomaly": 22.7779,
        "meta_ephemeris_type": 0,
        "meta_classification_type": "U",
        "meta_norad_cat_id": 31029,
        "meta_element_set_no": 999,
        "meta_rev_at_epoch": 97967,
        "meta_bstar": 0.00034634204,
        "meta_mean_motion_dot": 9.72e-06,
        "meta_mean_motion_ddot": 0,
        "tle_line1": "1 31029U 99025BDX 25358.67534611  .00000972  00000+0  34634-3 0  9996",
        "tle_line2": "2 31029  98.8586 255.8720 0089957  39.1712  22.7779 14.34345661979670"
      },
      "geometry": {
        "type": "Point",
        "coordinates": [
          -95.83943692373379,
          -35.46200383224515
        ]
      }
    },
    {
      "type": "Feature",
      "properties": {
        "norad_id": 31030,
        "name": "FENGYUN 1C DEB",
        "group": "fengyun-1c-debris",
        "lat": -21.49438568830738,
        "lon": 65.89835977545572,
        "alt_km": 810.1436604955034,
        "timestamp": "2025-12-26T12:57:39.552921+00:00",
        "meta_object_name": "FENGYUN 1C DEB",
        "meta_object_id": "1999-025BDY",
        "meta_epoch": "2025-12-26T03:04:59.043360",
        "meta_mean_motion": 14.23723884,
        "meta_eccentricity": 0.00270514,
        "meta_inclination": 98.7657,
        "meta_ra_of_asc_node": 62.0048,
        "meta_arg_of_pericenter": 45.7714,
        "meta_mean_anomaly": 344.5393,
        "meta_ephemeris_type": 0,
        "meta_classification_type": "U",
        "meta_norad_cat_id": 31030,
        "meta_element_set_no": 999,
        "meta_rev_at_epoch": 96895,
        "meta_bstar": 0.00084198854,
        "meta_mean_motion_dot": 1.886e-05,
        "meta_mean_motion_ddot": 0,
        "tle_line1": "1 31030U 99025BDY 25360.12846115  .00001886  00000+0  84199-3 0  9992",
        "tle_line2": "2 31030  98.7657  62.0048 0027051  45.7714 344.5393 14.23723884968954"
      },
      "geometry": {
        "type": "Point",
        "coordinates": [
          65.89835977545572,
          -21.49438568830738
        ]
      }
    },
    {
      "type": "Feature",
      "properties": {
        "norad_id": 31031,
        "name": "FENGYUN 1C DEB",
        "group": "fengyun-1c-debris",
        "lat": -27.59045925402197,
        "lon": 93.22012916649345,
        "alt_km": 817.8923472274191,
        "timestamp": "2025-12-26T12:57:39.552931+00:00",
        "meta_object_name": "FENGYUN 1C DEB",
        "meta_object_id": "1999-025BDZ",
        "meta_epoch": "2025-12-24T00:55:32.714976",
        "meta_mean_motion": 14.2100357,
        "meta_eccentricity": 0.00282093,
        "meta_inclination": 99.0724,
        "meta_ra_of_asc_node": 275.4423,
        "meta_arg_of_pericenter": 153.5984,
        "meta_mean_anomaly": 224.558,
        "meta_ephemeris_type": 0,
        "meta_classification_type": "U",
        "meta_norad_cat_id": 31031,
        "meta_element_set_no": 999,
        "meta_rev_at_epoch": 97015,
        "meta_bstar": 0.00038521203,
        "meta_mean_motion_dot": 7.92e-06,
        "meta_mean_motion_ddot": 0,
        "tle_line1": "1 31031U 99025BDZ 25358.03857309  .00000792  00000+0  38521-3 0  9990",
        "tle_line2": "2 31031  99.0724 275.4423 0028209 153.5984 224.5580 14.21003570970155"
      },
      "geometry": {
        "type": "Point",
        "coordinates": [
          93.22012916649345,
          -27.59045925402197
        ]
      }
    },
    {
      "type": "Feature",
      "properties": {
        "norad_id": 31032,
        "name": "FENGYUN 1C DEB",
        "group": "fengyun-1c-debris",
        "lat": 14.878988656459587,
        "lon": 7.27227404552474,
        "alt_km": 967.2679288250929,
        "timestamp": "2025-12-26T12:57:39.552942+00:00",
        "meta_object_name": "FENGYUN 1C DEB",
        "meta_object_id": "1999-025BEA",
        "meta_epoch": "2025-12-25T16:40:21.675648",
        "meta_mean_motion": 14.02253104,
        "meta_eccentricity": 0.01392,
        "meta_inclination": 99.3998,
        "meta_ra_of_asc_node": 8.9231,
        "meta_arg_of_pericenter": 160.7665,
        "meta_mean_anomaly": 270.3007,
        "meta_ephemeris_type": 0,
        "meta_classification_type": "U",
        "meta_norad_cat_id": 31032,
        "meta_element_set_no": 999,
        "meta_rev_at_epoch": 95163,
        "meta_bstar": 0.0014746921,
        "meta_mean_motion_dot": 2.414e-05,
        "meta_mean_motion_ddot": 0,
        "tle_line1": "1 31032U 99025BEA 25359.69469532  .00002414  00000+0  14747-2 0  9997",
        "tle_line2": "2 31032  99.3998   8.9231 0139200 160.7665 270.3007 14.02253104951632"
      },
      "geometry": {
        "type": "Point",
        "coordinates": [
          7.27227404552474,
          14.878988656459587
        ]
      }
    }
  ]
}